0 COSMOS 1579 COOLANT
1 27908U 84069AA  13284.10050423  .00000053  00000-0  11387-3 0  6578
2 27908 065.0363 097.1183 0051387 194.0182 165.9998 13.90354628539565
0 COSMOS 1579 COOLANT
1 27908U 84069AA  13287.84080446  .00000100  00000-0  15142-3 0  6587
2 27908 065.0435 087.3309 0044911 192.1301 167.7907 13.90357220540083
0 COSMOS 1579 COOLANT
1 27908U 84069AA  13290.78990344  .00000107  00000-0  15730-3 0  6604
2 27908 065.0418 079.6300 0045632 191.7213 168.2789 13.90358465540498
0 COSMOS 1579 COOLANT
1 27908U 84069AA  13290.78990804  .00000290  00000-0  23113-3 0  6590
2 27908 065.0441 079.6221 0047085 192.4359 167.6008 13.90358385540497
0 COSMOS 1579 COOLANT
1 27908U 84069AA  13293.81091553  .00000114  00000-0  16280-3 0  6615
2 27908 065.0423 071.7365 0045568 190.5944 169.4176 13.90359906540915
